HIMAWARI-8              
1 40267U 14060A   23302.55929370 -.00000276  00000+0  00000+0 0  9994
2 40267   0.0493  86.2447 0001004 134.2299 159.1769  1.00270635 33113
